NORAD_CAT_ID,OBJECT_NAME,OBJECT_TYPE,EPOCH,MEAN_MOTION,ECCENTRICITY,INCLINATION,RA_OF_ASC_NODE,ARG_OF_PERICENTER,MEAN_ANOMALY,BSTAR,MEAN_MOTION_DOT,MEAN_MOTION_DDOT,TLE_LINE0,TLE_LINE1,TLE_LINE2,SEMIMAJOR_AXIS,PERIOD,APOGEE,PERIGEE,DECAYED
53025.0,STARLINK-4218,PAYLOAD,2023-04-01 15:13:21,15.08830606,0.0001416,53.2151,221.2557,105.1583,254.9566,7.0005e-05,8.26e-06,0.0,0 STARLINK-4218,1 53025U 22076AR  23091.63427086  .00000826  00000-0  70005-4 0  9995,2 53025  53.2151 221.2557 0001416 105.1583 254.9566 15.08830606 40999,6917.909,95.438,540.754,538.795,0.0
53025.0,STARLINK-4218,PAYLOAD,2023-04-02 08:42:35,15.08842062,0.0001365,53.2153,217.9801,114.9931,245.1203,0.00034787,5.253e-05,0.0,0 STARLINK-4218,1 53025U 22076AR  23092.36291008  .00005253  00000-0  34787-3 0  9994,2 53025  53.2153 217.9801 0001365 114.9931 245.1203 15.08842062 41577,6917.874,95.437,540.683,538.795,0.0
53025.0,STARLINK-4218,PAYLOAD,2023-04-02 13:28:44,15.08856581,0.000148,53.2151,217.093,92.0536,268.0626,0.00066993,0.00010395,0.0,0 STARLINK-4218,1 53025U 22076AR  23092.56162702  .00010395  00000-0  66993-3 0  9991,2 53025  53.2151 217.0930 0001480  92.0536 268.0626 15.08856581 41602,6917.83,95.437,540.719,538.671,0.0
53025.0,STARLINK-4218,PAYLOAD,2023-04-02 18:14:53,15.08862781,0.0001793,53.2146,216.1946,119.5767,240.5404,0.00075368,0.00011735,0.0,0 STARLINK-4218,1 53025U 22076AR  23092.76034111  .00011735  00000-0  75368-3 0  9990,2 53025  53.2146 216.1946 0001793 119.5767 240.5404 15.08862781 41160,6917.811,95.436,540.916,538.435,0.0
53025.0,STARLINK-4218,PAYLOAD,2023-04-03 00:36:26,15.08840175,0.0001196,53.2156,215.0106,99.5822,260.5305,0.00015583,2.193e-05,0.0,0 STARLINK-4218,1 53025U 22076AR  23093.02530630  .00002193  00000-0  15583-3 0  9998,2 53025  53.2156 215.0106 0001196  99.5822 260.5305 15.08840175 41674,6917.88,95.438,540.572,538.917,0.0
53025.0,STARLINK-4218,PAYLOAD,2023-04-03 11:44:08,15.08829916,0.0001572,53.2185,212.9292,109.1449,250.9713,-0.00019448,-3.381e-05,0.0,0 STARLINK-4218,1 53025U 22076AR  23093.48899162 -.00003381  00000-0 -19448-3 0  9992,2 53025  53.2185 212.9292 0001572 109.1449 250.9713 15.08829916 41743,6917.911,95.438,540.864,538.689,0.0
53025.0,STARLINK-4218,PAYLOAD,2023-04-04 06:48:46,15.08844017,0.000112,53.2166,209.3625,50.9588,309.1503,3.4723e-05,2.65e-06,0.0,0 STARLINK-4218,1 53025U 22076AR  23094.28386905  .00000265  00000-0  34723-4 0  9997,2 53025  53.2166 209.3625 0001120  50.9588 309.1503 15.08844017 41864,6917.868,95.437,540.508,538.958,0.0
53025.0,STARLINK-4218,PAYLOAD,2023-04-04 11:34:55,15.08847036,0.0001357,53.2156,208.4658,94.1389,265.9758,0.00010981,1.46e-05,0.0,0 STARLINK-4218,1 53025U 22076AR  23094.48258726  .00001460  00000-0  10981-3 0  9995,2 53025  53.2156 208.4658 0001357  94.1389 265.9758 15.08847036 41427,6917.859,95.437,540.663,538.785,0.0
53025.0,STARLINK-4218,PAYLOAD,2023-04-05 13:01:05,15.08854997,0.0001384,53.2157,203.7086,70.1924,289.9218,-0.00061163,-0.00010013,0.0,0 STARLINK-4218,1 53025U 22076AR  23095.54242220 -.00010013  00000-0 -61163-3 0  9999,2 53025  53.2157 203.7086 0001384  70.1924 289.9218 15.08854997 41588,6917.835,95.437,540.657,538.742,0.0
53025.0,STARLINK-4218,PAYLOAD,2023-04-05 14:36:29,15.08839595,0.0001309,53.2159,203.4116,80.6274,279.4866,0.00018145,2.601e-05,0.0,0 STARLINK-4218,1 53025U 22076AR  23095.60867349  .00002601  00000-0  18145-3 0  9995,2 53025  53.2159 203.4116 0001309  80.6274 279.4866 15.08839595 42066,6917.882,95.438,540.652,538.841,0.0
53025.0,STARLINK-4218,PAYLOAD,2023-04-06 11:16:30,15.08840541,0.000152,53.2165,199.546,90.9016,269.215,0.00012207,1.655e-05,0.0,0 STARLINK-4218,1 53025U 22076AR  23096.46979446  .00001655  00000-0  12207-3 0  9993,2 53025  53.2165 199.5460 0001520  90.9016 269.2150 15.08840541 41721,6917.879,95.438,540.795,538.692,0.0
53025.0,STARLINK-4218,PAYLOAD,2023-04-06 16:02:39,15.08848095,0.0001364,53.2149,198.6525,82.8765,277.2383,0.0001147,1.538e-05,0.0,0 STARLINK-4218,1 53025U 22076AR  23096.66851015  .00001538  00000-0  11470-3 0  9997,2 53025  53.2149 198.6525 0001364  82.8765 277.2383 15.08848095 42227,6917.856,95.437,540.664,538.777,0.0
53025.0,STARLINK-4218,PAYLOAD,2023-04-07 06:21:07,15.08839473,0.0001294,53.2148,195.9769,89.7808,270.3332,7.7811e-05,9.51e-06,0.0,0 STARLINK-4218,1 53025U 22076AR  23097.26467452  .00000951  00000-0  77811-4 0  9992,2 53025  53.2148 195.9769 0001294  89.7808 270.3332 15.08839473 42310,6917.882,95.438,540.642,538.852,0.0
53025.0,STARLINK-4218,PAYLOAD,2023-04-07 11:07:17,15.08840292,0.0001476,53.2158,195.0863,84.4066,275.7094,0.00019338,2.791e-05,0.0,0 STARLINK-4218,1 53025U 22076AR  23097.46339489  .00002791  00000-0  19338-3 0  9995,2 53025  53.2158 195.0863 0001476  84.4066 275.7094 15.08840292 41872,6917.879,95.438,540.766,538.723,0.0
53025.0,STARLINK-4218,PAYLOAD,2023-04-08 12:33:27,15.0884379,0.0001503,53.2145,190.3266,87.7976,272.3188,5.3209e-05,5.59e-06,0.0,0 STARLINK-4218,1 53025U 22076AR  23098.52323208  .00000559  00000-0  53209-4 0  9991,2 53025  53.2145 190.3266 0001503  87.7976 272.3188 15.08843790 42504,6917.869,95.437,540.774,538.694,0.0
53025.0,STARLINK-4218,PAYLOAD,2023-04-09 06:02:42,15.08838564,0.0001779,53.2143,187.0569,90.5695,269.5501,1.7934e-05,-3e-08,0.0,0 STARLINK-4218,1 53025U 22076AR  23099.25187586 -.00000003  00000-0  17934-4 0  9999,2 53025  53.2143 187.0569 0001779  90.5695 269.5501 15.08838564 42618,6917.885,95.438,540.98,538.519,0.0
53025.0,STARLINK-4218,PAYLOAD,2023-04-09 10:48:51,15.08834752,0.0001587,53.2157,186.1656,84.7182,275.3991,1.6436e-05,-2.6e-07,0.0,0 STARLINK-4218,1 53025U 22076AR  23099.45059987 -.00000026  00000-0  16436-4 0  9995,2 53025  53.2157 186.1656 0001587  84.7182 275.3991 15.08834752 42177,6917.896,95.438,540.859,538.664,0.0
53025.0,STARLINK-4218,PAYLOAD,2023-04-09 15:35:00,15.08842028,0.0001557,53.2156,185.2708,104.9679,255.1486,9.4197e-06,-1.38e-06,0.0,0 STARLINK-4218,1 53025U 22076AR  23099.64931372 -.00000138  00000-0  94197-5 0  9998,2 53025  53.2156 185.2708 0001557 104.9679 255.1486 15.08842028 42201,6917.874,95.437,540.816,538.662,0.0
53025.0,STARLINK-4218,PAYLOAD,2023-04-10 05:53:29,15.08818865,0.0001477,53.2152,182.5951,103.2896,256.8261,0.0003329,5.011e-05,0.0,0 STARLINK-4218,1 53025U 22076AR  23100.24548236  .00005011  00000-0  33290-3 0  9999,2 53025  53.2152 182.5951 0001477 103.2896 256.8261 15.08818865 42763,6917.945,95.439,540.832,538.788,0.0
53025.0,STARLINK-4218,PAYLOAD,2023-04-10 21:47:20,15.08842863,0.000161,53.2137,179.6214,102.9311,257.1861,2.6459e-05,1.33e-06,0.0,0 STARLINK-4218,1 53025U 22076AR  23100.90787302  .00000133  00000-0  26459-4 0  9991,2 53025  53.2137 179.6214 0001610 102.9311 257.1861 15.08842863 42396,6917.872,95.437,540.85,538.623,0.0
53025.0,STARLINK-4218,PAYLOAD,2023-04-11 12:05:48,15.08845073,0.0001446,53.2157,176.9453,101.766,258.3494,0.00013689,1.892e-05,0.0,0 STARLINK-4218,1 53025U 22076AR  23101.50402954  .00001892  00000-0  13689-3 0  9998,2 53025  53.2157 176.9453 0001446 101.7660 258.3494 15.08845073 42485,6917.865,95.437,540.73,538.73,0.0
53025.0,STARLINK-4218,PAYLOAD,2023-04-12 05:35:04,15.08827683,0.0001205,53.2154,173.6739,90.3708,269.7422,-0.00011195,-2.068e-05,0.0,0 STARLINK-4218,1 53025U 22076AR  23102.23268767 -.00002068  00000-0 -11195-3 0  9999,2 53025  53.2154 173.6739 0001205  90.3708 269.7422 15.08827683 43061,6917.918,95.438,540.617,538.949,0.0
53025.0,STARLINK-4218,PAYLOAD,2023-04-12 08:45:50,15.08830977,0.0001309,53.2162,173.0798,94.3879,265.7263,-9.0556e-05,-1.728e-05,0.0,0 STARLINK-4218,1 53025U 22076AR  23102.36516593 -.00001728  00000-0 -90556-4 0  9997,2 53025  53.2162 173.0798 0001309  94.3879 265.7263 15.08830977 42616,6917.908,95.438,540.679,538.867,0.0
53025.0,STARLINK-4218,PAYLOAD,2023-04-12 15:07:22,15.08834071,0.0001361,53.2157,171.8895,97.897,262.2177,-5.5492e-05,-1.171e-05,0.0,0 STARLINK-4218,1 53025U 22076AR  23102.63012348 -.00001171  00000-0 -55492-4 0  9998,2 53025  53.2157 171.8895 0001361  97.8970 262.2177 15.08834071 43124,6917.899,95.438,540.705,538.822,0.0
53025.0,STARLINK-4218,PAYLOAD,2023-04-13 10:11:59,15.08842721,0.000126,53.2146,168.3219,82.3579,277.7556,7.5602e-05,9.16e-06,0.0,0 STARLINK-4218,1 53025U 22076AR  23103.42499543  .00000916  00000-0  75602-4 0  9991,2 53025  53.2146 168.3219 0001260  82.3579 277.7556 15.08842721 42778,6917.872,95.437,540.609,538.865,0.0
53025.0,STARLINK-4218,PAYLOAD,2023-04-13 11:47:22,15.08844827,0.0001263,53.2146,168.0245,81.972,278.1416,0.00011713,1.577e-05,0.0,0 STARLINK-4218,1 53025U 22076AR  23103.49123467  .00001577  00000-0  11713-3 0  9993,2 53025  53.2146 168.0245 0001263  81.9720 278.1416 15.08844827 43253,6917.866,95.437,540.604,538.857,0.0
53025.0,STARLINK-4218,PAYLOAD,2023-04-14 11:38:10,15.08841827,0.0001352,53.2141,163.5642,77.6701,282.4442,0.00021807,3.185e-05,0.0,0 STARLINK-4218,1 53025U 22076AR  23104.48484033  .00003185  00000-0  21807-3 0  9994,2 53025  53.2141 163.5642 0001352  77.6701 282.4442 15.08841827 42937,6917.875,95.437,540.675,538.805,0.0
53025.0,STARLINK-4218,PAYLOAD,2023-04-15 09:53:33,15.0884415,0.0001381,53.2142,159.3998,82.9176,277.1973,0.00012063,1.633e-05,0.0,0 STARLINK-4218,1 53025U 22076AR  23105.41219878  .00001633  00000-0  12063-3 0  9991,2 53025  53.2142 159.3998 0001381  82.9176 277.1973 15.08844150 43070,6917.868,95.437,540.688,538.777,0.0
53025.0,STARLINK-4218,PAYLOAD,2023-04-15 21:01:15,15.08839881,0.0001211,53.2149,157.3207,81.7566,278.3564,6.0785e-05,6.8e-06,0.0,0 STARLINK-4218,1 53025U 22076AR  23105.87587946  .00000680  00000-0  60785-4 0  9991,2 53025  53.2149 157.3207 0001211  81.7566 278.3564 15.08839881 43614,6917.881,95.438,540.584,538.908,0.0
53025.0,STARLINK-4218,PAYLOAD,2023-04-16 09:44:20,15.08845445,0.0001436,53.2139,154.9394,93.5775,266.5381,0.00018137,2.6e-05,0.0,0 STARLINK-4218,1 53025U 22076AR  23106.40579854  .00002600  00000-0  18137-3 0  9997,2 53025  53.2139 154.9394 0001436  93.5775 266.5381 15.08845445 43221,6917.864,95.437,540.722,538.735,0.0
